{"type":"FeatureCollection","features":[{"type":"Feature","geometry":{"type":"Polygon","coordinates":[[[-86.038,30.705],[-85.851,30.702],[-85.844,30.703],[-85.866,30.691],[-85.867,30.68],[-85.876,30.681],[-85.871,30.669],[-85.874,30.668],[-85.867,30.663],[-85.875,30.66],[-85.879,30.661],[-85.883,30.657],[-85.891,30.656],[-85.897,30.645],[-85.901,30.648],[-85.915,30.636],[-85.911,30.63],[-85.913,30.622],[-85.91,30.621],[-85.914,30.617],[-85.909,30.615],[-85.911,30.603],[-85.916,30.597],[-85.911,30.598],[-85.909,30.587],[-85.889,30.582],[-85.891,30.564],[-85.88,30.556],[-85.877,30.532],[-85.88,30.532],[-85.881,30.535],[-85.887,30.527],[-85.882,30.521],[-85.888,30.519],[-85.879,30.512],[-85.884,30.508],[-85.868,30.507],[-85.866,30.498],[-85.858,30.497],[-85.86,30.49],[-85.87,30.484],[-85.878,30.467],[-85.886,30.466],[-85.889,30.471],[-85.894,30.455],[-85.898,30.456],[-85.903,30.442],[-85.916,30.439],[-85.934,30.445],[-85.953,30.444],[-85.969,30.431],[-85.97,30.436],[-85.979,30.433],[-85.986,30.424],[-85.988,30.412],[-86.004,30.397],[-86.055,30.426],[-86.108,30.531],[-86.393,30.534],[-86.392,30.707],[-86.038,30.705]]]},"properties":{"event":"Hurricane Warning","severity":"Extreme","headline":"Hurricane Warning issued October 8 at 5:22PM EDT by NWS Tallahassee FL","ends":null}},{"type":"Feature","geometry":{"type":"Polygon","coordinates":[[[-86.187,30.994],[-86.036,30.993],[-86.038,30.705],[-86.392,30.707],[-86.389,30.994],[-86.187,30.994]]]},"properties":{"event":"Hurricane Warning","severity":"Extreme","headline":"Hurricane Warning issued October 8 at 5:22PM EDT by NWS Tallahassee FL","ends":null}},{"type":"Feature","geometry":{"type":"Polygon","coordinates":[[[-88.942,31.434],[-89.146,31.434],[-89.399,31.434],[-89.401,31.797],[-89.316,31.802],[-88.943,31.825],[-88.942,31.434]]]},"properties":{"event":"Tropical Storm Watch","severity":"Severe","headline":"Tropical Storm Watch issued October 8 at 4:11PM CDT by NWS Jackson MS","ends":null}},{"type":"Feature","geometry":{"type":"Polygon","coordinates":[[[-88.914,32.225],[-89.323,32.224],[-89.323,32.576],[-89.318,32.576],[-88.914,32.577],[-88.914,32.225]]]},"properties":{"event":"Tropical Storm Watch","severity":"Severe","headline":"Tropical Storm Watch issued October 8 at 4:11PM CDT by NWS Jackson MS","ends":null}},{"type":"Feature","geometry":{"type":"Polygon","coordinates":[[[-88.812,32.926],[-88.914,32.927],[-88.931,32.927],[-88.93,32.92],[-88.964,32.919],[-88.965,32.927],[-89.018,32.926],[-89.018,32.931],[-89.32,32.931],[-89.317,33.109],[-89.214,33.109],[-89.213,33.198],[-89.109,33.198],[-89.109,33.285],[-89.088,33.286],[-88.813,33.286],[-88.812,32.926]]]},"properties":{"event":"Tropical Storm Watch","severity":"Severe","headline":"Tropical Storm Watch issued October 8 at 4:11PM CDT by NWS Jackson MS","ends":null}},{"type":"Feature","geometry":{"type":"Polygon","coordinates":[[[-88.914,32.927],[-88.914,32.577],[-89.318,32.576],[-89.32,32.931],[-89.018,32.931],[-89.018,32.926],[-88.965,32.927],[-88.964,32.919],[-88.93,32.92],[-88.931,32.927],[-88.914,32.927]]]},"properties":{"event":"Tropical Storm Watch","severity":"Severe","headline":"Tropical Storm Watch issued October 8 at 4:11PM CDT by NWS Jackson MS","ends":null}},{"type":"Feature","geometry":{"type":"Polygon","coordinates":[[[-88.432,32.228],[-88.914,32.225],[-88.914,32.577],[-88.389,32.578],[-88.421,32.309],[-88.432,32.228]]]},"properties":{"event":"Tropical Storm Watch","severity":"Severe","headline":"Tropical Storm Watch issued October 8 at 4:11PM CDT by NWS Jackson MS","ends":null}},{"type":"Feature","geometry":{"type":"Polygon","coordinates":[[[-88.91,31.827],[-88.943,31.825],[-89.316,31.802],[-89.323,32.224],[-88.914,32.225],[-88.91,31.827]]]},"properties":{"event":"Tropical Storm Watch","severity":"Severe","headline":"Tropical Storm Watch issued October 8 at 4:11PM CDT by NWS Jackson MS","ends":null}},{"type":"Feature","geometry":{"type":"Polygon","coordinates":[[[-88.473,31.895],[-88.64,31.854],[-88.763,31.836],[-88.91,31.827],[-88.914,32.225],[-88.432,32.228],[-88.473,31.895]]]},"properties":{"event":"Tropical Storm Watch","severity":"Severe","headline":"Tropical Storm Watch issued October 8 at 4:11PM CDT by NWS Jackson MS","ends":null}},{"type":"Feature","geometry":{"type":"Polygon","coordinates":[[[-88.348,32.929],[-88.389,32.578],[-88.914,32.577],[-88.914,32.927],[-88.812,32.926],[-88.348,32.929]]]},"properties":{"event":"Tropical Storm Watch","severity":"Severe","headline":"Tropical Storm Watch issued October 8 at 4:11PM CDT by NWS Jackson MS","ends":null}},{"type":"Feature","geometry":{"type":"Polygon","coordinates":[[[-88.348,32.929],[-88.812,32.926],[-88.813,33.286],[-88.669,33.287],[-88.305,33.289],[-88.34,32.991],[-88.348,32.929]]]},"properties":{"event":"Tropical Storm Watch","severity":"Severe","headline":"Tropical Storm Watch issued October 8 at 4:11PM CDT by NWS Jackson MS","ends":null}},{"type":"Feature","geometry":{"type":"Polygon","coordinates":[[[-88.07,30.83],[-88.05,30.83],[-88.05,30.85],[-88.03,30.87],[-88.02,30.87],[-88.04,30.82],[-88.06,30.81],[-88.07,30.82],[-88.07,30.83]]]},"properties":{"event":"Flood Warning","severity":"Severe","headline":"Flood Warning issued October 8 at 10:52AM CDT until October 11 at 6:00PM CDT by NWS Mobile AL","ends":"2026-10-11T18:00:00-05:00"}},{"type":"Feature","geometry":{"type":"Polygon","coordinates":[[[-87.61,30.67],[-87.47,30.6],[-87.42,30.5],[-87.46,30.5],[-87.52,30.53],[-87.53,30.57],[-87.64,30.65],[-87.61,30.67]]]},"properties":{"event":"Flood Warning","severity":"Severe","headline":"Flood Warning issued October 8 at 8:40AM CDT until October 11 at 10:00AM CDT by NWS Mobile AL","ends":"2026-10-11T10:00:00-05:00"}},{"type":"Feature","geometry":{"type":"Polygon","coordinates":[[[-86.5,30.78],[-86.49,30.78],[-86.53,30.69],[-86.63,30.69],[-86.63,30.7],[-86.55,30.7],[-86.5,30.78]]]},"properties":{"event":"Flood Warning","severity":"Severe","headline":"Flood Warning issued October 8 at 8:38AM CDT by NWS Mobile AL","ends":null}},{"type":"Feature","geometry":{"type":"Polygon","coordinates":[[[-87.61,30.8],[-87.56,30.8],[-87.37,30.65],[-87.44,30.51],[-87.46,30.52],[-87.4,30.64],[-87.61,30.8]]]},"properties":{"event":"Flood Warning","severity":"Severe","headline":"Flood Warning issued October 8 at 8:37AM CDT until October 11 at 9:00PM CDT by NWS Mobile AL","ends":"2026-10-11T21:00:00-05:00"}},{"type":"Feature","geometry":{"type":"Polygon","coordinates":[[[-86.74,30.99],[-86.71,30.99],[-86.72,30.75],[-86.88,30.68],[-86.9,30.7],[-86.75,30.82],[-86.74,30.99]]]},"properties":{"event":"Flood Warning","severity":"Severe","headline":"Flood Warning issued October 8 at 8:35AM CDT until October 11 at 1:00PM CDT by NWS Mobile AL","ends":"2026-10-11T13:00:00-05:00"}},{"type":"Feature","geometry":{"type":"Polygon","coordinates":[[[-86.96,30.91],[-86.94,30.88],[-87,30.81],[-86.96,30.68],[-86.97,30.68],[-87.04,30.8],[-86.96,30.91]]]},"properties":{"event":"Flood Warning","severity":"Severe","headline":"Flood Warning issued October 8 at 8:34AM CDT until October 12 at 5:00PM CDT by NWS Mobile AL","ends":"2026-10-12T17:00:00-05:00"}}]}